[{"OBJECT_NAME":"STARLINK-30148","OBJECT_ID":"2023-119R","EPOCH":"2025-07-31T08:11:56.451840","MEAN_MOTION":15.02540272,"ECCENTRICITY":0.0003046,"INCLINATION":43.0061,"RA_OF_ASC_NODE":204.8557,"ARG_OF_PERICENTER":280.842,"MEAN_ANOMALY":79.208,"EPHEMERIS_TYPE":0,"CLASSIFICATION_TYPE":"U","NORAD_CAT_ID":57617,"ELEMENT_SET_NO":999,"REV_AT_EPOCH":10977,"BSTAR":0.00026798,"MEAN_MOTION_DOT":3.418e-5,"MEAN_MOTION_DDOT":0},{"OBJECT_NAME":"STARLINK-30249","OBJECT_ID":"2023-119S","EPOCH":"2025-07-31T08:07:11.287776","MEAN_MOTION":15.02537796,"ECCENTRICITY":0.0001249,"INCLINATION":43.0015,"RA_OF_ASC_NODE":204.8269,"ARG_OF_PERICENTER":287.2162,"MEAN_ANOMALY":72.8544,"EPHEMERIS_TYPE":0,"CLASSIFICATION_TYPE":"U","NORAD_CAT_ID":57618,"ELEMENT_SET_NO":999,"REV_AT_EPOCH":10972,"BSTAR":4.55e-5,"MEAN_MOTION_DOT":4.11e-6,"MEAN_MOTION_DDOT":0},{"OBJECT_NAME":"STARLINK-30141","OBJECT_ID":"2023-119U","EPOCH":"2025-07-30T06:17:57.813216","MEAN_MOTION":15.025338,"ECCENTRICITY":0.0001369,"INCLINATION":43.002,"RA_OF_ASC_NODE":210.5095,"ARG_OF_PERICENTER":288.7034,"MEAN_ANOMALY":71.366,"EPHEMERIS_TYPE":0,"CLASSIFICATION_TYPE":"U","NORAD_CAT_ID":57620,"ELEMENT_SET_NO":999,"REV_AT_EPOCH":10962,"BSTAR":-8.3272e-6,"MEAN_MOTION_DOT":-3.16e-6,"MEAN_MOTION_DDOT":0},{"OBJECT_NAME":"STARLINK-30150","OBJECT_ID":"2023-119V","EPOCH":"2025-07-31T11:04:17.331744","MEAN_MOTION":15.02529751,"ECCENTRICITY":6.49e-5,"INCLINATION":43.0001,"RA_OF_ASC_NODE":204.0295,"ARG_OF_PERICENTER":317.6221,"MEAN_ANOMALY":42.4571,"EPHEMERIS_TYPE":0,"CLASSIFICATION_TYPE":"U","NORAD_CAT_ID":57621,"ELEMENT_SET_NO":999,"REV_AT_EPOCH":10979,"BSTAR":3.6255e-5,"MEAN_MOTION_DOT":2.86e-6,"MEAN_MOTION_DDOT":0},{"OBJECT_NAME":"STARLINK-30056","OBJECT_ID":"2023-119W","EPOCH":"2025-07-31T09:23:45.142944","MEAN_MOTION":15.02530752,"ECCENTRICITY":0.0001484,"INCLINATION":43.0027,"RA_OF_ASC_NODE":204.3389,"ARG_OF_PERICENTER":289.4602,"MEAN_ANOMALY":70.608,"EPHEMERIS_TYPE":0,"CLASSIFICATION_TYPE":"U","NORAD_CAT_ID":57622,"ELEMENT_SET_NO":999,"REV_AT_EPOCH":10978,"BSTAR":-1.1855e-5,"MEAN_MOTION_DOT":-3.64e-6,"MEAN_MOTION_DDOT":0},{"OBJECT_NAME":"STARLINK-30100","OBJECT_ID":"2023-119X","EPOCH":"2025-07-30T17:21:39.777984","MEAN_MOTION":15.02534996,"ECCENTRICITY":0.0001252,"INCLINATION":43.0021,"RA_OF_ASC_NODE":207.9535,"ARG_OF_PERICENTER":285.2962,"MEAN_ANOMALY":74.7742,"EPHEMERIS_TYPE":0,"CLASSIFICATION_TYPE":"U","NORAD_CAT_ID":57623,"ELEMENT_SET_NO":999,"REV_AT_EPOCH":10969,"BSTAR":2.2613e-5,"MEAN_MOTION_DOT":1.02e-6,"MEAN_MOTION_DDOT":0},{"OBJECT_NAME":"STARLINK-30309","OBJECT_ID":"2023-122A","EPOCH":"2025-07-30T11:55:51.214656","MEAN_MOTION":15.02534449,"ECCENTRICITY":0.0001534,"INCLINATION":43.0025,"RA_OF_ASC_NODE":222.3698,"ARG_OF_PERICENTER":288.6427,"MEAN_ANOMALY":71.4249,"EPHEMERIS_TYPE":0,"CLASSIFICATION_TYPE":"U","NORAD_CAT_ID":57632,"ELEMENT_SET_NO":999,"REV_AT_EPOCH":10873,"BSTAR":6.2101e-6,"MEAN_MOTION_DOT":-1.2e-6,"MEAN_MOTION_DDOT":0},{"OBJECT_NAME":"STARLINK-30306","OBJECT_ID":"2023-122B","EPOCH":"2025-07-31T11:46:59.890944","MEAN_MOTION":15.02541339,"ECCENTRICITY":0.0001674,"INCLINATION":43.0027,"RA_OF_ASC_NODE":216.9236,"ARG_OF_PERICENTER":283.684,"MEAN_ANOMALY":76.3815,"EPHEMERIS_TYPE":0,"CLASSIFICATION_TYPE":"U","NORAD_CAT_ID":57633,"ELEMENT_SET_NO":999,"REV_AT_EPOCH":10889,"BSTAR":0.00013095,"MEAN_MOTION_DOT":1.566e-5,"MEAN_MOTION_DDOT":0},{"OBJECT_NAME":"STARLINK-30323","OBJECT_ID":"2023-122C","EPOCH":"2025-07-30T16:30:30.474144","MEAN_MOTION":15.02534384,"ECCENTRICITY":0.0001159,"INCLINATION":43.0024,"RA_OF_ASC_NODE":207.6332,"ARG_OF_PERICENTER":297.2463,"MEAN_ANOMALY":62.8261,"EPHEMERIS_TYPE":0,"CLASSIFICATION_TYPE":"U","NORAD_CAT_ID":57634,"ELEMENT_SET_NO":999,"REV_AT_EPOCH":10894,"BSTAR":2.1977e-5,"MEAN_MOTION_DOT":9.3e-7,"MEAN_MOTION_DDOT":0},{"OBJECT_NAME":"STARLINK-30329","OBJECT_ID":"2023-122D","EPOCH":"2025-07-31T11:42:10.908864","MEAN_MOTION":15.02537892,"ECCENTRICITY":0.0001457,"INCLINATION":43.0029,"RA_OF_ASC_NODE":216.8982,"ARG_OF_PERICENTER":305.1544,"MEAN_ANOMALY":54.9162,"EPHEMERIS_TYPE":0,"CLASSIFICATION_TYPE":"U","NORAD_CAT_ID":57635,"ELEMENT_SET_NO":999,"REV_AT_EPOCH":10884,"BSTAR":3.9208e-5,"MEAN_MOTION_DOT":3.26e-6,"MEAN_MOTION_DDOT":0},{"OBJECT_NAME":"STARLINK-30330","OBJECT_ID":"2023-122E","EPOCH":"2025-07-31T08:25:55.803648","MEAN_MOTION":15.02538416,"ECCENTRICITY":0.0001263,"INCLINATION":43.002,"RA_OF_ASC_NODE":217.5971,"ARG_OF_PERICENTER":283.3789,"MEAN_ANOMALY":76.6912,"EPHEMERIS_TYPE":0,"CLASSIFICATION_TYPE":"U","NORAD_CAT_ID":57636,"ELEMENT_SET_NO":999,"REV_AT_EPOCH":10887,"BSTAR":7.1507e-5,"MEAN_MOTION_DOT":7.63e-6,"MEAN_MOTION_DDOT":0},{"OBJECT_NAME":"STARLINK-30311","OBJECT_ID":"2023-122F","EPOCH":"2025-07-30T17:54:47.538720","MEAN_MOTION":15.0253964,"ECCENTRICITY":0.0001598,"INCLINATION":43.0017,"RA_OF_ASC_NODE":220.8006,"ARG_OF_PERICENTER":281.1251,"MEAN_ANOMALY":78.9411,"EPHEMERIS_TYPE":0,"CLASSIFICATION_TYPE":"U","NORAD_CAT_ID":57637,"ELEMENT_SET_NO":999,"REV_AT_EPOCH":10879,"BSTAR":-0.00017862,"MEAN_MOTION_DOT":-2.616e-5,"MEAN_MOTION_DDOT":0},{"OBJECT_NAME":"STARLINK-30328","OBJECT_ID":"2023-122G","EPOCH":"2025-07-30T16:40:04.980576","MEAN_MOTION":15.02537484,"ECCENTRICITY":0.000145,"INCLINATION":43.0015,"RA_OF_ASC_NODE":207.6248,"ARG_OF_PERICENTER":313.6106,"MEAN_ANOMALY":46.4616,"EPHEMERIS_TYPE":0,"CLASSIFICATION_TYPE":"U","NORAD_CAT_ID":57638,"ELEMENT_SET_NO":999,"REV_AT_EPOCH":10895,"BSTAR":-4.7813e-6,"MEAN_MOTION_DOT":-2.68e-6,"MEAN_MOTION_DDOT":0},{"OBJECT_NAME":"STARLINK-30326","OBJECT_ID":"2023-122H","EPOCH":"2025-07-30T17:02:02.464800","MEAN_MOTION":15.02538042,"ECCENTRICITY":0.0001726,"INCLINATION":43.0015,"RA_OF_ASC_NODE":220.5204,"ARG_OF_PERICENTER":286.048,"MEAN_ANOMALY":74.0172,"EPHEMERIS_TYPE":0,"CLASSIFICATION_TYPE":"U","NORAD_CAT_ID":57639,"ELEMENT_SET_NO":999,"REV_AT_EPOCH":10879,"BSTAR":5.6191e-5,"MEAN_MOTION_DOT":5.55e-6,"MEAN_MOTION_DDOT":0},{"OBJECT_NAME":"STARLINK-30324","OBJECT_ID":"2023-122J","EPOCH":"2025-07-30T17:45:12.093984","MEAN_MOTION":15.02534925,"ECCENTRICITY":0.0001318,"INCLINATION":43.0018,"RA_OF_ASC_NODE":220.7502,"ARG_OF_PERICENTER":280.5336,"MEAN_ANOMALY":79.5357,"EPHEMERIS_TYPE":0,"CLASSIFICATION_TYPE":"U","NORAD_CAT_ID":57640,"ELEMENT_SET_NO":999,"REV_AT_EPOCH":10879,"BSTAR":4.6238e-5,"MEAN_MOTION_DOT":4.21e-6,"MEAN_MOTION_DDOT":0},{"OBJECT_NAME":"STARLINK-30312","OBJECT_ID":"2023-122K","EPOCH":"2025-07-30T17:40:24.277440","MEAN_MOTION":15.02536837,"ECCENTRICITY":0.0001582,"INCLINATION":43.0028,"RA_OF_ASC_NODE":220.7241,"ARG_OF_PERICENTER":285.6944,"MEAN_ANOMALY":74.3723,"EPHEMERIS_TYPE":0,"CLASSIFICATION_TYPE":"U","NORAD_CAT_ID":57641,"ELEMENT_SET_NO":999,"REV_AT_EPOCH":10879,"BSTAR":5.0319e-5,"MEAN_MOTION_DOT":4.76e-6,"MEAN_MOTION_DDOT":0},{"OBJECT_NAME":"STARLINK-30263","OBJECT_ID":"2023-122L","EPOCH":"2025-07-30T11:07:54.483456","MEAN_MOTION":15.02532836,"ECCENTRICITY":0.0001255,"INCLINATION":43.0024,"RA_OF_ASC_NODE":222.1189,"ARG_OF_PERICENTER":280.8367,"MEAN_ANOMALY":79.2334,"EPHEMERIS_TYPE":0,"CLASSIFICATION_TYPE":"U","NORAD_CAT_ID":57642,"ELEMENT_SET_NO":999,"REV_AT_EPOCH":10875,"BSTAR":-1.5849e-5,"MEAN_MOTION_DOT":-4.18e-6,"MEAN_MOTION_DDOT":0},{"OBJECT_NAME":"STARLINK-30280","OBJECT_ID":"2023-122M","EPOCH":"2025-07-30T17:16:25.802976","MEAN_MOTION":15.02537883,"ECCENTRICITY":0.000146,"INCLINATION":43.0015,"RA_OF_ASC_NODE":220.6007,"ARG_OF_PERICENTER":285.564,"MEAN_ANOMALY":74.5041,"EPHEMERIS_TYPE":0,"CLASSIFICATION_TYPE":"U","NORAD_CAT_ID":57643,"ELEMENT_SET_NO":999,"REV_AT_EPOCH":10879,"BSTAR":2.1511e-5,"MEAN_MOTION_DOT":8.7e-7,"MEAN_MOTION_DDOT":0},{"OBJECT_NAME":"STARLINK-30247","OBJECT_ID":"2023-122N","EPOCH":"2025-07-31T10:54:14.215680","MEAN_MOTION":15.02534013,"ECCENTRICITY":0.0001533,"INCLINATION":43.0026,"RA_OF_ASC_NODE":216.6566,"ARG_OF_PERICENTER":283.4322,"MEAN_ANOMALY":76.6349,"EPHEMERIS_TYPE":0,"CLASSIFICATION_TYPE":"U","NORAD_CAT_ID":57644,"ELEMENT_SET_NO":999,"REV_AT_EPOCH":10888,"BSTAR":-1.5986e-5,"MEAN_MOTION_DOT":-4.2e-6,"MEAN_MOTION_DDOT":0},{"OBJECT_NAME":"STARLINK-30277","OBJECT_ID":"2023-122P","EPOCH":"2025-07-31T03:18:16.899840","MEAN_MOTION":15.27577565,"ECCENTRICITY":0.0002083,"INCLINATION":43.0048,"RA_OF_ASC_NODE":121.609,"ARG_OF_PERICENTER":260.6199,"MEAN_ANOMALY":99.4417,"EPHEMERIS_TYPE":0,"CLASSIFICATION_TYPE":"U","NORAD_CAT_ID":57645,"ELEMENT_SET_NO":999,"REV_AT_EPOCH":10998,"BSTAR":-3.4993e-5,"MEAN_MOTION_DOT":-1.225e-5,"MEAN_MOTION_DDOT":0},{"OBJECT_NAME":"STARLINK-30265","OBJECT_ID":"2023-122Q","EPOCH":"2025-07-30T17:35:36.907584","MEAN_MOTION":15.0253493,"ECCENTRICITY":0.0001279,"INCLINATION":43.0026,"RA_OF_ASC_NODE":220.6998,"ARG_OF_PERICENTER":280.9857,"MEAN_ANOMALY":79.0841,"EPHEMERIS_TYPE":0,"CLASSIFICATION_TYPE":"U","NORAD_CAT_ID":57646,"ELEMENT_SET_NO":999,"REV_AT_EPOCH":10879,"BSTAR":1.0343e-5,"MEAN_MOTION_DOT":-6.4e-7,"MEAN_MOTION_DDOT":0},{"OBJECT_NAME":"STARLINK-30286","OBJECT_ID":"2023-122R","EPOCH":"2025-07-30T17:11:38.250816","MEAN_MOTION":15.02534745,"ECCENTRICITY":0.0001365,"INCLINATION":43.0023,"RA_OF_ASC_NODE":220.5711,"ARG_OF_PERICENTER":284.015,"MEAN_ANOMALY":76.054,"EPHEMERIS_TYPE":0,"CLASSIFICATION_TYPE":"U","NORAD_CAT_ID":57647,"ELEMENT_SET_NO":999,"REV_AT_EPOCH":10879,"BSTAR":7.1427e-6,"MEAN_MOTION_DOT":-1.07e-6,"MEAN_MOTION_DDOT":0},{"OBJECT_NAME":"STARLINK-30243","OBJECT_ID":"2023-122S","EPOCH":"2025-07-30T12:05:16.627488","MEAN_MOTION":15.02531656,"ECCENTRICITY":0.0001572,"INCLINATION":43.0017,"RA_OF_ASC_NODE":221.5615,"ARG_OF_PERICENTER":286.8331,"MEAN_ANOMALY":73.2338,"EPHEMERIS_TYPE":0,"CLASSIFICATION_TYPE":"U","NORAD_CAT_ID":57648,"ELEMENT_SET_NO":999,"REV_AT_EPOCH":10875,"BSTAR":1.324e-5,"MEAN_MOTION_DOT":-2.5e-7,"MEAN_MOTION_DDOT":0}]
